#dP2022  2 16 12  0  0.00000000      96 __u+U ITR00 EXT  IAC
## 2197 302400.00000000   900.00000000 59626 0.5000000000000
+  117   C06C07C08C09C10C11C12C13C14C16C19C20C21C22C23C24C25
+        C26C27C28C29C30C32C33C34C35C36C37C38C39C40C41C42C43
+        C44C45C46E01E02E03E04E05E07E08E09E10E11E12E13E14E15
+        E18E21E24E25E26E27E30E31E33E34E36G01G02G03G04G05G06
+        G07G08G09G10G11G12G13G14G15G16G17G18G19G20G21G22G23
+        G24G25G26G27G28G29G30G31G32J01J02J03R01R02R03R04R05
+        R07R08R09R11R12R13R14R15R17R18R19R20R21R22R24  0  0
++        10 11 10  7 10  9  8  9  9  9 10  8  8  8  9  9  9
++         8  7  9  9  8 10  9  9  8  9  8 10  7 11  8  9  9
++         7  7 10  7  8  9  6  7  7 10  8  8  7  8  8  7  8
++         8  8  8  7  9  7  7  7  8  8  8  8  7  7  7  8  8
++         9  8  6  7  7  8  9 13  7  7  7  8  7  8  7  8  9
++         8  7  7  8  8  8  7  8  6  8 10  9  9  8 10 10 10
++         8  8  7  7  7 10  8  9  7  9  9  8  9  9  8  0  0
%c M  cc GPS ccc cccc cccc cccc cccc ccccc ccccc ccccc ccccc
%c cc cc ccc ccc cccc cccc cccc cccc ccccc ccccc ccccc ccccc
%f  0.0000000  0.000000000  0.00000000000  0.000000000000000
%f  0.0000000  0.000000000  0.00000000000  0.000000000000000
%i    0    0    0    0      0      0      0      0         0
%i    0    0    0    0      0      0      0      0         0
/* IAC                                ULTRA-RAPID PREDICTION
/* S/V CLOCKS ARE ALIGNED TO GNSS TIME                      
/* G:C1WC2W R:C1PC2P E:C1XC5X C:C2IC6I J:C1CC2S             
/* PCV:IGS14_2196 OL/AL:FES2004  NONE     YN ORB:CoN CLK:CoN
*  2022 02 16 20 15  0.00000000
PC06  -6880.053548  39764.781504  12569.532907     62.351486
PC07  -7578.549351  25814.002961 -32456.064278    -61.723777
PC08 -20170.066403  29651.594268  22066.007441    138.986325
PC09  -1808.730487  42289.843492   3237.793151   -528.879654
PC10    571.158190  27763.858769 -31389.776853    139.783256
PC11  -4783.282371 -27004.818794  -5163.263250   -204.085090
PC12   6466.977609 -24305.775281  12137.850303    680.891844
PC13 -12102.766522  30006.002096  27025.734505   -114.704791
PC14 -11939.855846 -18638.961016 -17001.893989    454.767603
PC16  -7021.895144  39434.648502  13712.895835     83.798710
PC19  20256.898160  16725.484679   9421.740501    896.246013
PC20   3490.097471  17787.425359  21226.656982   -824.740215
PC21  16411.726935  -8207.921094 -21000.069064   -945.183187
PC22  25938.520323   5944.333395  -8359.767690   -958.016767
PC23 -23449.135003   3093.615614  14799.079383   -958.857296
PC24   8841.104498 -20544.370020  16691.039934   -943.960593
PC25 -11599.912328 -11590.404140  22567.711403   -778.461020
PC26  21601.890077 -17545.359882   2318.482373    778.179934
PC27 -11629.669983  17460.457860 -18429.111694    678.459629
PC28 -15929.314232  -2811.198963 -22735.397672     33.501404
PC29  11681.355421  21401.285582  13576.312885    516.052972
PC30     43.221181  27628.064978  -4034.309758    493.465794
PC32 -16417.113910   8320.086289  20996.337656   -966.434482
PC33 -20331.154658 -16630.025193  -9438.038561   -957.851875
PC34   -629.950338 -27711.263530   3091.137363   -467.523399
PC35  16101.989616   3173.797335  22568.984548    142.830445
PC36  10894.878279  12180.247153 -22603.949123   -906.812732
PC37 -22470.063260  16475.339190  -1264.167646   -960.870295
PC38 -24172.428211  30678.818305  15720.109782    211.881633
PC39  -9228.475503  36014.034067  20053.285698     34.770471
PC40 -10909.820737  19889.911748 -35556.033973    244.971752
PC41 -26034.398847  -6111.311045   8022.527240   -938.639705
PC42  -2499.496719 -17579.535213 -21485.946595   -931.618439
PC43 -11367.335730 -21890.870270 -13029.830792   -941.336732
PC44  11215.949269 -17636.759178  18464.398336    567.027854
PC45  23503.411159  -3389.472375 -14684.484166    682.302463
PC46  -7434.592291  20262.610546 -17669.938845   -172.225679
PE01  10915.171093 -16176.981314  22256.268023   -580.387786
PE02 -10702.419009  16210.392399 -22333.840455    280.702158
PE03   -695.377432  22431.035566  19294.158324   -528.455727
PE04 -14944.358147 -25293.547851  -3601.135336   -966.130790
PE05 -16220.097629   6330.938280  23939.028369   -208.415090
PE07  22090.391320  13236.355604 -14584.958693   -639.692740
PE08  15321.424805  25116.293169   3216.117510   5854.190690
PE09 -22080.242903 -13010.138751  14823.551964   5357.925336
PE10 -10499.068276 -14219.913384 -23743.136690   -495.788813
PE11 -16064.940407  -3363.226510 -24636.138400   4436.687707
PE12  -3595.275890 -22339.877903 -19065.646235   4756.061945
PE13  15715.071690   4056.194744  24762.717356    426.595244
PE14  11763.144611 -10800.000429  18334.805854  -1748.141050
PE15   3491.057780  22426.191624  19017.803729    762.890228
PE18 -19458.575805   6166.716916 -24524.007733  -1784.581477
PE21  26543.550388  -9011.671516   9520.811152   -717.565006
PE24 -27262.288625  -4712.121460  10463.202211  -1394.317157
PE25 -26656.029747   8872.544551  -9301.370743   -563.857425
PE26  18638.526707 -17364.792363  15082.493275   -813.409402
PE27  27829.670297   3771.440997  -9381.813788   -233.868156
PE30  11532.702889  14706.348632 -22972.596593   -279.589281
PE31 -12713.898651 -14240.072989  22620.829474   -492.286173
PE33  10753.708909 -27492.565479  -2064.609113   -459.367632
PE34 -10567.643933  27553.776397   2286.870324   -502.168572
PE36 -18634.378576  16606.982579 -15911.395987   -333.273364
PG01  13755.742966 -22483.483876  -1010.474542    429.821218
PG02 -17903.159108   8825.938500 -16925.105015   -650.979563
PG03  12288.557107 -12969.473422 -19719.125142   -124.441099
PG04   4487.983586 -19186.080228 -17766.605530   -189.157208
PG05 -24713.298966   5650.086878   8017.550271    -71.665686
PG06 -11938.963131  -8473.826604 -22088.789610    203.650257
PG07   1399.395363 -21958.735025  14894.650849    310.749390
PG08  11890.701670  -9548.333986  21696.790279    -56.439035
PG09  -5649.597324 -24168.359786  -9480.516548   -353.881377
PG10  17766.560489  11712.900682  16218.154054   -322.317536
PG11 -19089.796625   5713.273684 -17558.685924    -86.795327
PG12 -15788.409900  11006.638573 -18509.280314   -172.026594
PG13 -15467.849739    593.253588  21449.633240    262.806311
PG14 -16582.233090 -12906.844980  16279.607069    -84.650754
PG15 -10827.767994  11628.272320  20851.003518    -83.322489
PG16  26343.007529    165.532533   4710.582757   -470.285528
PG17 -13429.084162 -22329.058872  -4582.016629    575.968298
PG18  -2223.746567  21859.995381  14844.857961    238.751430
PG19 -16050.512040 -17240.896133 -12711.093088    119.808534
PG20 -26299.156446   1516.772135  -2087.841915    516.673991
PG21  17237.482835 -17281.600822  10310.442085    158.141798
PG22  16907.112228  14599.837594 -14108.751101    214.579092
PG23   6051.861511  14725.185929  21263.904874      0.724962
PG24 -14543.884722  21575.757727   3786.376435    274.164832
PG25  -1929.159660  15336.985144 -21871.809107    286.464504
PG26  24986.549218   5417.442648  -7844.367073    183.790467
PG27  16943.482799   2703.103679  20186.148455    121.870844
PG28 -22275.313830 -10217.751286  10466.014292    399.035468
PG29   1887.563456  23799.143845 -11627.876449   -481.018817
PG30  -6149.734385 -16879.464825  19556.770331   -513.775418
PG31  14306.293192   6173.273365 -21664.899514   -165.036383
PG32  16747.843630  18975.977476  -8241.996448    -68.899632
PJ01 -27219.303535  19978.105086  30297.595986    243.798889
PJ02 -34956.402650  16503.307683 -12281.610186     -1.395836
PJ03 -20703.994638  30077.377853 -16412.797470     -0.561142
PR01  18114.748012   2142.870658 -17822.807611      7.095735
PR02   2108.592258 -11633.463570 -22551.225418    509.869896
PR03 -13604.719908 -17358.310454 -12721.626540     51.585158
PR04 -21365.909172 -13329.582695   4054.816907    127.979436
PR05 -17334.640609  -1988.986405  18608.395749     87.842216
PR07  14115.267540  17452.981975  12203.100672     31.708885
PR08  21416.902494  13272.863444  -4011.438203    -63.590763
PR09 -14378.880832  14885.846729 -14946.232115     39.837203
PR11  17911.696084   1139.773678 -18114.855219     45.462420
PR12  23539.431063  -9693.068207  -1789.248645     17.219631
PR13  15374.389139 -14621.542433  14142.893436    -18.366748
PR14  -2830.641640 -10899.924500  22891.761753     74.430595
PR15 -18443.279028   -981.200277  17604.646509     98.142360
PR17  -1828.712162 -23542.809158  -9676.181077    502.204158
PR18  -8416.612460 -10856.698356 -21460.069177    107.485756
PR19 -10848.754829   6030.343098 -22280.516223   -178.423861
PR20  -7158.462513  22974.628638  -8520.829302    -65.055067
PR21   2369.259739  22865.386079  11038.755391   -278.568494
PR22   8546.650808  10126.717605  21809.391625   -165.127009
PR24   6558.776599 -23383.187058   7836.941337     80.516270
EOF
